NORAD_CAT_ID,OBJECT_NAME,OBJECT_TYPE,EPOCH,MEAN_MOTION,ECCENTRICITY,INCLINATION,RA_OF_ASC_NODE,ARG_OF_PERICENTER,MEAN_ANOMALY,BSTAR,MEAN_MOTION_DOT,MEAN_MOTION_DDOT,TLE_LINE0,TLE_LINE1,TLE_LINE2,SEMIMAJOR_AXIS,PERIOD,APOGEE,PERIGEE,DECAYED
52628.0,STARLINK-4001,PAYLOAD,2022-07-22 20:00:01,15.08851927,0.000174,53.2182,116.1063,66.4762,276.9862,0.00016168,2.287e-05,0.0,0 STARLINK-4001,1 52628U 22052AG  22203.83334491  .00002287  00000-0  16168-3 0  9992,2 52628  53.2182 116.1063 0001740  66.4762 276.9862 15.08851927 11005,6917.844,95.437,540.913,538.505,0.0
52628.0,STARLINK-4001,PAYLOAD,2022-07-22 22:00:00,15.08860023,0.0001779,53.2181,115.7328,64.222,12.1405,-0.001017,-0.00016446,0.0,0 STARLINK-4001,1 52628U 22052AG  22203.91667824 -.00016446  00000-0 -10170-2 0  9990,2 52628  53.2181 115.7328 0001779  64.2220  12.1405 15.08860023  1302,6917.819,95.436,540.915,538.4540000000002,0.0
52628.0,STARLINK-4001,PAYLOAD,2022-07-23 12:00:00,15.08853842,0.0001686,53.2184,113.1137,63.4576,303.2095,-0.0024747,-0.00039473,0.0,0 STARLINK-4001,1 52628U 22052AG  22204.50001157 -.00039473  00000-0 -24747-2 0  9997,2 52628  53.2184 113.1137 0001686  63.4576 303.2095 15.08853842 11106,6917.8380000000025,95.437,540.869,538.5369999999998,0.0
52628.0,STARLINK-4001,PAYLOAD,2022-07-23 14:00:01,15.08820113,0.0001619,53.2184,112.7392,64.8384,34.8022,0.001449,0.00022835,0.0,0 STARLINK-4001,1 52628U 22052AG  22204.58335648  .00022835  00000-0  14490-2 0  9996,2 52628  53.2184 112.7392 0001619  64.8384  34.8022 15.08820113  1305,6917.941,95.439,540.9259999999998,538.686,0.0
52628.0,STARLINK-4001,PAYLOAD,2022-07-23 22:00:00,15.08854431,0.0001702,53.2186,111.244,63.0255,48.1349,-0.0011812,-0.00019045,0.0,0 STARLINK-4001,1 52628U 22052AG  22204.91667824 -.00019045  00000-0 -11812-2 0  9993,2 52628  53.2186 111.2440 0001702  63.0255  48.1349 15.08854431  1306,6917.8359999999975,95.437,540.879,538.524,0.0
52628.0,STARLINK-4001,PAYLOAD,2022-07-24 14:00:01,15.08838972,0.0001655,53.2186,108.2505,66.2734,68.093,0.0011323,0.00017778,0.0,0 STARLINK-4001,1 52628U 22052AG  22205.58334491  .00017778  00000-0  11323-2 0  9994,2 52628  53.2186 108.2505 0001655  66.2734  68.0930 15.08838972  1307,6917.884,95.438,540.893,538.604,0.0
52628.0,STARLINK-4001,PAYLOAD,2022-07-24 22:00:00,15.08849304,0.0001819,53.2188,106.7554,65.8875,80.082,-0.00236,-0.00037662,0.0,0 STARLINK-4001,1 52628U 22052AG  22205.91667824 -.00037662  00000-0 -23600-2 0  9997,2 52628  53.2188 106.7554 0001819  65.8875  80.0820 15.08849304  1302,6917.852,95.437,540.975,538.4590000000002,0.0
52628.0,STARLINK-4001,PAYLOAD,2022-07-25 04:00:01,15.088084599999998,0.0001894,53.2186,105.634,62.4458,2.2855,0.0030493,0.00048534,0.0,0 STARLINK-4001,1 52628U 22052AG  22206.16668981  .00048534  00000-0  30493-2 0  9996,2 52628  53.2186 105.6340 0001894  62.4458   2.2855 15.08808460 11352,6917.977,95.44,541.1519999999998,538.5319999999998,0.0
52628.0,STARLINK-4001,PAYLOAD,2022-07-25 14:00:01,15.08816129,0.0001761,53.2184,103.7619,70.3188,98.8325,0.0027753,0.00044129,0.0,0 STARLINK-4001,1 52628U 22052AG  22206.58334491  .00044129  00000-0  27753-2 0  9999,2 52628  53.2184 103.7619 0001761  70.3188  98.8325 15.08816129  1307,6917.953,95.439,541.0369999999998,538.6,0.0
52628.0,STARLINK-4001,PAYLOAD,2022-07-25 20:00:01,15.08858456,0.0001839,53.2187,102.6406,70.3838,17.4474,-0.0015733,-0.00025253,0.0,0 STARLINK-4001,1 52628U 22052AG  22206.83334491 -.00025253  00000-0 -15733-2 0  9991,2 52628  53.2187 102.6406 0001839  70.3838  17.4474 15.08858456 11458,6917.824000000001,95.436,540.961,538.4169999999998,0.0
52628.0,STARLINK-4001,PAYLOAD,2022-07-25 22:00:00,15.08853106,0.0001868,53.2186,102.267,68.2229,112.5121,-0.0013824,-0.0002223,0.0,0 STARLINK-4001,1 52628U 22052AG  22206.91667824 -.00022230  00000-0 -13824-2 0  9990,2 52628  53.2186 102.2670 0001868  68.2229 112.5121 15.08853106  1304,6917.84,95.437,540.998,538.413,0.0
52628.0,STARLINK-4001,PAYLOAD,2022-07-26 12:00:00,15.08836424,0.0001794,53.2183,99.6476,71.6223,39.4214,0.0016788,0.00026529,0.0,0 STARLINK-4001,1 52628U 22052AG  22207.50001157  .00026529  00000-0  16788-2 0  9992,2 52628  53.2183  99.6476 0001794  71.6223  39.4214 15.08836424 11556,6917.891,95.438,540.997,538.515,0.0
52628.0,STARLINK-4001,PAYLOAD,2022-07-26 14:00:01,15.08831461,0.0001807,53.2181,99.2732,72.7647,131.1815,0.0027590999999999,0.00043887,0.0,0 STARLINK-4001,1 52628U 22052AG  22207.58334491  .00043887  00000-0  27591-2 0  9990,2 52628  53.2181  99.2732 0001807  72.7647 131.1815 15.08831461  1307,6917.906,95.438,541.0219999999998,538.521,0.0
52628.0,STARLINK-4001,PAYLOAD,2022-07-26 22:00:00,15.08864541,0.0001906999999999,53.2181,97.7784,69.6384,145.9104,-0.0011316,-0.00018265,0.0,0 STARLINK-4001,1 52628U 22052AG  22207.91667824 -.00018265  00000-0 -11316-2 0  9998,2 52628  53.2181  97.7784 0001907  69.6384 145.9104 15.08864541  1300,6917.805,95.436,540.99,538.351,0.0
52628.0,STARLINK-4001,PAYLOAD,2022-07-27 04:00:01,15.08845779,0.0001913,53.2179,96.6567,65.3772,68.9508,0.0017245,0.00027269,0.0,0 STARLINK-4001,1 52628U 22052AG  22208.16668981  .00027269  00000-0  17245-2 0  9990,2 52628  53.2179  96.6567 0001913  65.3772  68.9508 15.08845779 11658,6917.863,95.437,541.0509999999998,538.404,0.0
52628.0,STARLINK-4001,PAYLOAD,2022-07-27 12:00:00,15.08833039,0.0001746,53.2179,95.1587,71.8095,74.0806,0.00075807,0.00011795,0.0,0 STARLINK-4001,1 52628U 22052AG  22208.50001157  .00011795  00000-0  75807-3 0  9990,2 52628  53.2179  95.1587 0001746  71.8095  74.0806 15.08833039 11709,6917.901999999999,95.438,540.975,538.559,0.0
52628.0,STARLINK-4001,PAYLOAD,2022-07-27 14:00:01,15.08823196,0.0001754,53.2178,94.7843,72.932,165.8594,0.0022375,0.00035485,0.0,0 STARLINK-4001,1 52628U 22052AG  22208.58334491  .00035485  00000-0  22375-2 0  9991,2 52628  53.2178  94.7843 0001754  72.9320 165.8594 15.08823196  1301,6917.932,95.439,541.01,538.5830000000002,0.0
52628.0,STARLINK-4001,PAYLOAD,2022-07-27 22:00:00,15.08850188,0.0001859,53.2178,93.2896,68.8155,181.5676,-0.0008793,-0.00014259,0.0,0 STARLINK-4001,1 52628U 22052AG  22208.91667824 -.00014259  00000-0 -87930-3 0  9994,2 52628  53.2178  93.2896 0001859  68.8155 181.5676 15.08850188  1306,6917.849,95.437,541.0,538.428,0.0
52628.0,STARLINK-4001,PAYLOAD,2022-07-28 14:00:01,15.08811419,0.0001710999999999,53.2178,90.2953,72.1856,201.4089,0.0023434,0.00037175,0.0,0 STARLINK-4001,1 52628U 22052AG  22209.58334491  .00037175  00000-0  23434-2 0  9997,2 52628  53.2178  90.2953 0001711  72.1856 201.4089 15.08811419  1304,6917.968000000003,95.439,541.016,538.649,0.0
52628.0,STARLINK-4001,PAYLOAD,2022-07-28 20:00:01,15.08845054,0.0001792,53.218,89.1742,69.8906,122.3817,-0.0014708,-0.00023623,0.0,0 STARLINK-4001,1 52628U 22052AG  22209.83334491 -.00023623  00000-0 -14708-2 0  9994,2 52628  53.2180  89.1742 0001792  69.8906 122.3817 15.08845054 11907,6917.865,95.437,540.97,538.49,0.0
52628.0,STARLINK-4001,PAYLOAD,2022-07-28 22:00:00,15.08837408,0.0001833,53.2178,88.8006,67.4162,217.7565,-0.00078743,-0.00012797,0.0,0 STARLINK-4001,1 52628U 22052AG  22209.91667824 -.00012797  00000-0 -78743-3 0  9992,2 52628  53.2178  88.8006 0001833  67.4162 217.7565 15.08837408  1303,6917.888000000001,95.438,541.021,538.485,0.0
52628.0,STARLINK-4001,PAYLOAD,2022-07-29 12:00:00,15.08821729,0.0001736,53.218,86.1805,70.9469,144.5175,0.0025725,0.00040871,0.0,0 STARLINK-4001,1 52628U 22052AG  22210.50001157  .00040871  00000-0  25725-2 0  9993,2 52628  53.2180  86.1805 0001736  70.9469 144.5175 15.08821729 12007,6917.936,95.439,541.002,538.6,0.0
52628.0,STARLINK-4001,PAYLOAD,2022-07-29 14:00:01,15.08828245,0.0001757,53.218,85.8062,72.721,235.6394,0.0021811,0.00034584,0.0,0 STARLINK-4001,1 52628U 22052AG  22210.58334491  .00034584  00000-0  21811-2 0  9997,2 52628  53.2180  85.8062 0001757  72.7210 235.6394 15.08828245  1301,6917.916,95.438,540.997,538.566,0.0
52628.0,STARLINK-4001,PAYLOAD,2022-07-29 20:00:01,15.08863155,0.0001803,53.2182,84.6852,69.1907,157.8606,-0.0041632,-0.00065981,0.0,0 STARLINK-4001,1 52628U 22052AG  22210.83334491 -.00065981  00000-0 -41632-2 0  9995,2 52628  53.2182  84.6852 0001803  69.1907 157.8606 15.08863155 12067,6917.81,95.436,540.922,538.427,0.0
52628.0,STARLINK-4001,PAYLOAD,2022-07-29 22:00:00,15.088427800000002,0.0001838,53.2181,84.3115,66.6752,253.2821,-0.0025618999999999,-0.00040834,0.0,0 STARLINK-4001,1 52628U 22052AG  22210.91667824 -.00040834  00000-0 -25619-2 0  9990,2 52628  53.2181  84.3115 0001838  66.6752 253.2821 15.08842780  1309,6917.871999999999,95.437,541.008,538.465,0.0
52628.0,STARLINK-4001,PAYLOAD,2022-07-30 04:00:00,15.08817968,0.0001793,53.218,83.1895,63.6024,175.0436,0.0011853,0.00018615,0.0,0 STARLINK-4001,1 52628U 22052AG  22211.16667824  .00018615  00000-0  11853-2 0  9993,2 52628  53.2180  83.1895 0001793  63.6024 175.0436 15.08817968 12113,6917.948,95.439,541.053,538.572,0.0
52628.0,STARLINK-4001,PAYLOAD,2022-07-30 14:00:01,15.08811847,0.0001730999999999,53.2183,81.3171,72.8553,270.2659,0.0026289,0.00041767,0.0,0 STARLINK-4001,1 52628U 22052AG  22211.58334491  .00041767  00000-0  26289-2 0  9993,2 52628  53.2183  81.3171 0001731  72.8553 270.2659 15.08811847  1308,6917.965999999999,95.439,541.029,538.634,0.0
52628.0,STARLINK-4001,PAYLOAD,2022-07-30 22:00:00,15.08836943,0.0001849,53.2183,79.8225,67.0491,287.6519,-0.00073183,-0.00011915,0.0,0 STARLINK-4001,1 52628U 22052AG  22211.91667824 -.00011915  00000-0 -73183-3 0  9999,2 52628  53.2183  79.8225 0001849  67.0491 287.6519 15.08836943  1308,6917.89,95.438,541.034,538.476,0.0
52628.0,STARLINK-4001,PAYLOAD,2022-07-31 04:00:00,15.08836245,0.0001811999999999,53.2181,78.7002,65.2027,208.1861,0.00034344,5.181e-05,0.0,0 STARLINK-4001,1 52628U 22052AG  22212.16667824  .00005181  00000-0  34344-3 0  9999,2 52628  53.2181  78.7002 0001812  65.2027 208.1861 15.08836245 12262,6917.892,95.438,541.01,538.503,0.0
